NORAD_CAT_ID,OBJECT_NAME,OBJECT_TYPE,EPOCH,MEAN_MOTION,ECCENTRICITY,INCLINATION,RA_OF_ASC_NODE,ARG_OF_PERICENTER,MEAN_ANOMALY,BSTAR,MEAN_MOTION_DOT,MEAN_MOTION_DDOT,TLE_LINE0,TLE_LINE1,TLE_LINE2,SEMIMAJOR_AXIS,PERIOD,APOGEE,PERIGEE,DECAYED
52988.0,STARLINK-4291,PAYLOAD,2022-10-23 14:00:01,15.08840537,0.000187,53.2173,229.7592,39.6544,324.7066,-0.0058255,-0.00091824,0.0,0 STARLINK-4291,1 52988U 22076C   22296.58334491 -.00091824  00000-0 -58255-2 0  9990,2 52988  53.2173 229.7592 0001870  39.6544 324.7066 15.08840537  1301,6917.879,95.438,541.0369999999998,538.45,0.0
52988.0,STARLINK-4291,PAYLOAD,2022-10-23 22:00:00,15.08798865,0.0001919,53.2175,228.2633,43.7378,332.1742,-0.00044169,-7.303e-05,0.0,0 STARLINK-4291,1 52988U 22076C   22296.91667824 -.00007303  00000-0 -44169-3 0  9995,2 52988  53.2175 228.2633 0001919  43.7378 332.1742 15.08798865  1308,6918.005999999999,95.44,541.1990000000002,538.544,0.0
52988.0,STARLINK-4291,PAYLOAD,2022-10-24 06:00:00,15.08774122,0.0002101,53.2172,226.7684,39.9455,347.5124,0.0036882,0.00058794,0.0,0 STARLINK-4291,1 52988U 22076C   22297.25001157  .00058794  00000-0  36882-2 0  9994,2 52988  53.2172 226.7684 0002101  39.9455 347.5124 15.08774122 17256,6918.081999999999,95.442,541.4,538.493,0.0
52988.0,STARLINK-4291,PAYLOAD,2022-10-24 14:00:01,15.087956599999998,0.000193,53.2172,225.2705,44.23,354.7717,0.0015683,0.00024729,0.0,0 STARLINK-4291,1 52988U 22076C   22297.58334491  .00024729  00000-0  15683-2 0  9997,2 52988  53.2172 225.2705 0001930  44.2300 354.7717 15.08795660  1308,6918.016,95.44,541.216,538.5459999999998,0.0
52988.0,STARLINK-4291,PAYLOAD,2022-10-24 22:00:00,15.08832878,0.0001983,53.2172,223.7749,45.9159,4.6313,-0.0010397,-0.00016794,0.0,0 STARLINK-4291,1 52988U 22076C   22297.91667824 -.00016794  00000-0 -10397-2 0  9995,2 52988  53.2172 223.7749 0001983  45.9159   4.6313 15.08832878 17355,6917.901999999999,95.438,541.139,538.395,0.0
52988.0,STARLINK-4291,PAYLOAD,2022-10-25 14:00:01,15.08798914,0.0001899,53.2168,220.7818,44.3646,29.3455,0.0013309,0.00020933,0.0,0 STARLINK-4291,1 52988U 22076C   22298.58334491  .00020933  00000-0  13309-2 0  9994,2 52988  53.2168 220.7818 0001899  44.3646  29.3455 15.08798914  1305,6918.005999999999,95.44,541.185,538.557,0.0
52988.0,STARLINK-4291,PAYLOAD,2022-10-25 22:00:01,15.08830688,0.0001996,53.2168,219.2862,45.3134,40.0065,-0.0014519,-0.00023315,0.0,0 STARLINK-4291,1 52988U 22076C   22298.91668981 -.00023315  00000-0 -14519-2 0  9998,2 52988  53.2168 219.2862 0001996  45.3134  40.0065 15.08830688 17509,6917.909000000002,95.438,541.155,538.393,0.0
52988.0,STARLINK-4291,PAYLOAD,2022-10-26 14:00:01,15.08817125,0.0001974,53.2165,216.2931,45.6796,62.7378,0.0024083999999999,0.00038226,0.0,0 STARLINK-4291,1 52988U 22076C   22299.58334491  .00038226  00000-0  24084-2 0  9991,2 52988  53.2165 216.2931 0001974  45.6796  62.7378 15.08817125  1303,6917.95,95.439,541.181,538.45,0.0
52988.0,STARLINK-4291,PAYLOAD,2022-10-26 22:00:00,15.08858394,0.0002102,53.2164,214.7974,46.8029,73.191,-0.0012774,-0.00020571,0.0,0 STARLINK-4291,1 52988U 22076C   22299.91667824 -.00020571  00000-0 -12774-2 0  9996,2 52988  53.2164 214.7974 0002102  46.8029  73.1910 15.08858394  1309,6917.824000000001,95.436,541.143,538.235,0.0
52988.0,STARLINK-4291,PAYLOAD,2022-10-27 06:00:00,15.08834493,0.000224,53.2162,213.3022,42.3246,89.2813,0.0030635,0.00048799,0.0,0 STARLINK-4291,1 52988U 22076C   22300.25001157  .00048799  00000-0  30635-2 0  9993,2 52988  53.2162 213.3022 0002240  42.3246  89.2813 15.08834493 17717,6917.897,95.438,541.312,538.2130000000002,0.0
52988.0,STARLINK-4291,PAYLOAD,2022-10-27 14:00:01,15.08858102,0.0002037,53.2163,211.8039,45.7844,97.5077,-0.00022074,-3.801e-05,0.0,0 STARLINK-4291,1 52988U 22076C   22300.58335648 -.00003801  00000-0 -22074-3 0  9990,2 52988  53.2163 211.8039 0002037  45.7844  97.5077 15.08858102  1309,6917.825,95.436,541.099,538.281,0.0
52988.0,STARLINK-4291,PAYLOAD,2022-10-27 22:00:00,15.08879583,0.0002103,53.2163,210.3084,45.4564,109.3833,-0.0030639,-0.00048774,0.0,0 STARLINK-4291,1 52988U 22076C   22300.91667824 -.00048774  00000-0 -30639-2 0  9994,2 52988  53.2163 210.3084 0002103  45.4564 109.3833 15.08879583 17814,6917.759,95.435,541.0790000000002,538.17,0.0
52988.0,STARLINK-4291,PAYLOAD,2022-10-28 14:00:01,15.08818451,0.0001939,53.2163,207.3147,41.7424,136.4063,0.0022922,0.0003636,0.0,0 STARLINK-4291,1 52988U 22076C   22301.58335648  .00036360  00000-0  22922-2 0  9996,2 52988  53.2163 207.3147 0001939  41.7424 136.4063 15.08818451  1300,6917.946,95.439,541.153,538.47,0.0
52988.0,STARLINK-4291,PAYLOAD,2022-10-28 22:00:01,15.08869666,0.0002005,53.2164,205.8194,41.3872,148.3419,-0.0038224,-0.0006066,0.0,0 STARLINK-4291,1 52988U 22076C   22301.91668981 -.00060660  00000-0 -38224-2 0  9996,2 52988  53.2164 205.8194 0002005  41.3872 148.3419 15.08869666  1305,6917.79,95.436,541.0419999999998,538.268,0.0
52988.0,STARLINK-4291,PAYLOAD,2022-10-29 04:00:00,15.08808609,0.0002073999999999,53.2164,204.6981,36.7978,71.5849,0.0027813,0.00044217,0.0,0 STARLINK-4291,1 52988U 22076C   22302.16667824  .00044217  00000-0  27813-2 0  9999,2 52988  53.2164 204.6981 0002074  36.7978  71.5849 15.08808609 17993,6917.976,95.44,541.276,538.4069999999998,0.0
52988.0,STARLINK-4291,PAYLOAD,2022-10-29 12:00:00,15.08846791,0.0001928,53.2168,203.1925,37.5618,82.4039,-0.0049848,-0.00078771,0.0,0 STARLINK-4291,1 52988U 22076C   22302.50001157 -.00078771  00000-0 -49848-2 0  9994,2 52988  53.2168 203.1925 0001928  37.5618  82.4039 15.08846791  1300,6917.86,95.437,541.058,538.391,0.0
52988.0,STARLINK-4291,PAYLOAD,2022-10-29 22:00:01,15.08868552,0.0001937,53.2164,201.3303,37.985,186.5502,-0.0010614,-0.00017154,0.0,0 STARLINK-4291,1 52988U 22076C   22302.91668981 -.00017154  00000-0 -10614-2 0  9990,2 52988  53.2164 201.3303 0001937  37.9850 186.5502 15.08868552  1308,6917.793000000002,95.436,540.998,538.318,0.0
52988.0,STARLINK-4291,PAYLOAD,2022-10-30 00:00:00,15.08871215,0.0001999,53.2163,200.9567,36.6542,280.7229,-0.0017389,-0.0002788,0.0,0 STARLINK-4291,1 52988U 22076C   22303.00001157 -.00027880  00000-0 -17389-2 0  9990,2 52988  53.2163 200.9567 0001999  36.6542 280.7229 15.08871215 18127,6917.785,95.436,541.033,538.2669999999998,0.0
52988.0,STARLINK-4291,PAYLOAD,2022-10-30 14:00:01,15.08800299,0.000183,53.2162,198.3363,39.1317,208.5727,0.00098659,0.00015431,0.0,0 STARLINK-4291,1 52988U 22076C   22303.58334491  .00015431  00000-0  98659-3 0  9990,2 52988  53.2162 198.3363 0001830  39.1317 208.5727 15.08800299  1309,6918.002,95.44,541.133,538.601,0.0
52988.0,STARLINK-4291,PAYLOAD,2022-10-30 22:00:01,15.08829009,0.0001899999999999,53.2163,196.8413,36.5854,222.7359,-0.0028791,-0.00045805,0.0,0 STARLINK-4291,1 52988U 22076C   22303.91668981 -.00045805  00000-0 -28791-2 0  9990,2 52988  53.2163 196.8413 0001900  36.5854 222.7359 15.08829009  1303,6917.9140000000025,95.438,541.0930000000002,538.465,0.0
52988.0,STARLINK-4291,PAYLOAD,2022-10-31 14:00:01,15.08787203,0.000175,53.216,193.8475,38.0667,244.3092,0.003951,0.00063064,0.0,0 STARLINK-4291,1 52988U 22076C   22304.58334491  .00063064  00000-0  39510-2 0  9996,2 52988  53.2160 193.8475 0001750  38.0667 244.3092 15.08787203  1300,6918.042,95.441,541.117,538.696,0.0
52988.0,STARLINK-4291,PAYLOAD,2022-10-31 22:00:01,15.08834951,0.0001902,53.216,192.3525,37.2476,256.7499,-0.00012584,-2.29e-05,0.0,0 STARLINK-4291,1 52988U 22076C   22304.91668981 -.00002290  00000-0 -12584-3 0  9996,2 52988  53.2160 192.3525 0001902  37.2476 256.7499 15.08834951  1309,6917.896,95.438,541.077,538.445,0.0
52988.0,STARLINK-4291,PAYLOAD,2022-11-01 14:00:01,15.08805187,0.0001855,53.2158,189.3584,43.5749,273.5592,0.0039419,0.00062948,0.0,0 STARLINK-4291,1 52988U 22076C   22305.58334491  .00062948  00000-0  39419-2 0  9995,2 52988  53.2158 189.3584 0001855  43.5749 273.5592 15.08805187  1307,6917.986999999999,95.44,541.135,538.569,0.0
52988.0,STARLINK-4291,PAYLOAD,2022-11-01 22:00:00,15.08858726,0.0001999,53.2158,187.8637,41.2382,287.4732,-0.0020158,-0.00032244,0.0,0 STARLINK-4291,1 52988U 22076C   22305.91667824 -.00032244  00000-0 -20158-2 0  9999,2 52988  53.2158 187.8637 0001999  41.2382 287.4732 15.08858726  1303,6917.823,95.436,541.071,538.305,0.0
52988.0,STARLINK-4291,PAYLOAD,2022-11-02 06:00:00,15.08854638,0.0002021999999999,53.2155,186.3672,38.6237,301.6893,-0.0039448999999999,-0.00062553,0.0,0 STARLINK-4291,1 52988U 22076C   22306.25001157 -.00062553  00000-0 -39449-2 0  9997,2 52988  53.2155 186.3672 0002022  38.6237 301.6893 15.08854638 18617,6917.8359999999975,95.437,541.099,538.302,0.0
52988.0,STARLINK-4291,PAYLOAD,2022-11-02 14:00:01,15.08787527,0.0001879,53.2156,184.8681,45.8743,306.0336,0.0038274999999999,0.00061067,0.0,0 STARLINK-4291,1 52988U 22076C   22306.58334491  .00061067  00000-0  38275-2 0  9996,2 52988  53.2156 184.8681 0001879  45.8743 306.0336 15.08787527  1303,6918.041,95.441,541.206,538.606,0.0
52988.0,STARLINK-4291,PAYLOAD,2022-11-02 18:00:02,15.08827205,0.0001919,53.2162,184.1153,47.3578,130.3846,0.00023903,3.517e-05,0.0,0 STARLINK-4291,1 52988U 22076C   22306.75002315  .00003517  00000-0  23903-3 0  9991,2 52988  53.2162 184.1153 0001919  47.3578 130.3846 15.08827205 18697,6917.919,95.438,541.112,538.457,0.0
52988.0,STARLINK-4291,PAYLOAD,2022-11-03 09:06:49,15.08841428,0.0002032,53.2163,181.295,43.784,316.3313,0.00039193,5.955e-05,0.0,0 STARLINK-4291,1 52988U 22076C   22307.37974178  .00005955  00000-0  39193-3 0  9991,2 52988  53.2163 181.2950 0002032  43.7840 316.3313 15.08841428 18317,6917.876,95.437,541.1469999999998,538.335,0.0
52988.0,STARLINK-4291,PAYLOAD,2022-11-03 15:28:22,15.08848197,0.0002013,53.2162,180.105,44.3407,315.7746,0.00059838,9.25e-05,0.0,0 STARLINK-4291,1 52988U 22076C   22307.64470076  .00009250  00000-0  59838-3 0  9999,2 52988  53.2162 180.1050 0002013  44.3407 315.7746 15.08848197 18829,6917.855,95.437,541.113,538.328,0.0
